HAWK-C                  
1 43799U 18099AT  26068.67261865  .00009431  00000+0  35663-3 0  9994
2 43799  97.4027 122.6817 0040363 277.4052  82.2601 15.26407167398720
STARLINK-35563          
1 66087U 25236B   26068.48384699  .00028413  00000+0  96792-3 0  9991
2 66087  53.1602 104.7929 0001540  70.0195 290.0972 15.30195000 22850
