[{"OBJECT_NAME":"HAWK-C","OBJECT_ID":"2018-099AT","EPOCH":"2026-03-09T16:08:34.251360","MEAN_MOTION":15.26407167,"ECCENTRICITY":0.00403625,"INCLINATION":97.4027,"RA_OF_ASC_NODE":122.6817,"ARG_OF_PERICENTER":277.4052,"MEAN_ANOMALY":82.2601,"EPHEMERIS_TYPE":0,"CLASSIFICATION_TYPE":"U","NORAD_CAT_ID":43799,"ELEMENT_SET_NO":999,"REV_AT_EPOCH":39872,"BSTAR":0.00035662773,"MEAN_MOTION_DOT":9.431e-5,"MEAN_MOTION_DDOT":0},{"OBJECT_NAME":"STARLINK-35563","OBJECT_ID":"2025-236B","EPOCH":"2026-03-09T11:36:44.379936","MEAN_MOTION":15.30195,"ECCENTRICITY":0.00015405,"INCLINATION":53.1602,"RA_OF_ASC_NODE":104.7929,"ARG_OF_PERICENTER":70.0195,"MEAN_ANOMALY":290.0972,"EPHEMERIS_TYPE":0,"CLASSIFICATION_TYPE":"U","NORAD_CAT_ID":66087,"ELEMENT_SET_NO":999,"REV_AT_EPOCH":2285,"BSTAR":0.00096792196,"MEAN_MOTION_DOT":0.00028413,"MEAN_MOTION_DDOT":0}]
